[{"OBJECT_NAME":"LIDE","OBJECT_ID":"2025-154A","EPOCH":"2026-03-09T17:40:09.364800","MEAN_MOTION":14.93720025,"ECCENTRICITY":0.00054258,"INCLINATION":97.682,"RA_OF_ASC_NODE":134.8153,"ARG_OF_PERICENTER":185.342,"MEAN_ANOMALY":174.7743,"EPHEMERIS_TYPE":0,"CLASSIFICATION_TYPE":"U","NORAD_CAT_ID":64869,"ELEMENT_SET_NO":999,"REV_AT_EPOCH":3415,"BSTAR":0.00043353011,"MEAN_MOTION_DOT":4.535e-5,"MEAN_MOTION_DDOT":0},{"OBJECT_NAME":"IKONOS 2","OBJECT_ID":"1999-051A","EPOCH":"2026-03-09T15:19:40.153152","MEAN_MOTION":14.96976552,"ECCENTRICITY":0.0006412,"INCLINATION":98.1486,"RA_OF_ASC_NODE":313.4587,"ARG_OF_PERICENTER":157.8343,"MEAN_ANOMALY":202.3156,"EPHEMERIS_TYPE":0,"CLASSIFICATION_TYPE":"U","NORAD_CAT_ID":25919,"ELEMENT_SET_NO":999,"REV_AT_EPOCH":42402,"BSTAR":0.00024901,"MEAN_MOTION_DOT":2.801e-5,"MEAN_MOTION_DDOT":0}]
